[{"OBJECT_NAME":"QB50P2","OBJECT_ID":"2014-033Y","EPOCH":"2026-03-09T22:15:59.880096","MEAN_MOTION":15.13675048,"ECCENTRICITY":0.00085666,"INCLINATION":98.0738,"RA_OF_ASC_NODE":59.7545,"ARG_OF_PERICENTER":142.3387,"MEAN_ANOMALY":217.8444,"EPHEMERIS_TYPE":0,"CLASSIFICATION_TYPE":"U","NORAD_CAT_ID":40032,"ELEMENT_SET_NO":999,"REV_AT_EPOCH":63764,"BSTAR":0.00059145643,"MEAN_MOTION_DOT":0.00010584,"MEAN_MOTION_DDOT":0},{"OBJECT_NAME":"STARLINK-1417","OBJECT_ID":"2020-035AN","EPOCH":"2026-03-09T06:25:21.276768","MEAN_MOTION":15.12514223,"ECCENTRICITY":0.00021286,"INCLINATION":53.0515,"RA_OF_ASC_NODE":56.2233,"ARG_OF_PERICENTER":233.0338,"MEAN_ANOMALY":127.0459,"EPHEMERIS_TYPE":0,"CLASSIFICATION_TYPE":"U","NORAD_CAT_ID":45693,"ELEMENT_SET_NO":999,"REV_AT_EPOCH":31883,"BSTAR":0.0019843855,"MEAN_MOTION_DOT":0.00034834,"MEAN_MOTION_DDOT":0}]
